STARLINK-30534
1 57992U 23153B   26061.16668981  .02016293  00000+0  74449-1 0  9997
2 57992  43.0002 109.1954 0001805 240.9118 340.4683 15.23575560  5463
